*******************************************************************************
JPL/HORIZONS                 59 Elpis (A860 RA)            2020-Jun-20 08:03:00
Rec #:      59 (+COV) Soln.date: 2020-May-20_00:57:16   # obs: 2591 (1865-2020)
 
IAU76/J2000 helio. ecliptic osc. elements (au, days, deg., period=Julian yrs):
 
  EPOCH=  2453698.5 ! 2005-Nov-24.00 (TDB)         Residual RMS= .24907
   EC= .1177154975655721   QR= 2.39473050840725    TP= 2452977.5119540393
   OM= 170.3102653810014   W=  210.3144487017212   IN= 8.641916773790348
   A= 2.714238436467638    MA= 158.9132624245929   ADIST= 3.033746364528027
   PER= 4.47178            N= .220410392           ANGMOM= .028143325
   DAN= 2.97939            DDN= 2.42972            L= 20.3404635
   B= -4.3496246           MOID= 1.40025997        TP= 2003-Dec-04.0119540393
 
Asteroid physical parameters (km, seconds, rotational period in hours):
   GM= n.a.                RAD= 82.5595            ROTPER= 13.671
   H= 8.                   G= .150                 B-V= .662
                           ALBEDO= .044            STYP= B
 
ASTEROID comments: 
1: soln ref.= JPL#110, OCC=0
2: source=ORB
*******************************************************************************
 
 
*******************************************************************************
Ephemeris / WWW_USER Sat Jun 20 08:03:00 2020 Pasadena, USA      / Horizons
*******************************************************************************
Target body name: 59 Elpis (A860 RA)              {source: JPL#110}
Center body name: Solar System Barycenter (0)     {source: DE431}
Center-site name: BODY CENTER
*******************************************************************************
Start time      : A.D. 1969-Jun-28 00:00:00.0000 TDB
Stop  time      : A.D. 2071-May-04 00:00:00.0000 TDB
Step-size       : 7200 minutes
*******************************************************************************
Center geodetic : 0.00000000,0.00000000,0.0000000 {E-lon(deg),Lat(deg),Alt(km)}
Center cylindric: 0.00000000,0.00000000,0.0000000 {E-lon(deg),Dxy(km),Dz(km)}
Center radii    : (undefined)                                                  
Small perturbers: Yes                             {source: SB431-N16}
Output units    : AU-D
Output type     : GEOMETRIC cartesian states
Output format   : 2 (position and velocity)
Reference frame : Ecliptic of J2000.0
*******************************************************************************
Initial IAU76/J2000 heliocentric ecliptic osculating elements (au, days, deg.):
  EPOCH=  2453698.5 ! 2005-Nov-24.00 (TDB)         Residual RMS= .24907        
   EC= .1177154975655721   QR= 2.39473050840725    TP= 2452977.5119540393      
   OM= 170.3102653810014   W=  210.3144487017212   IN= 8.641916773790348       
  Equivalent ICRF heliocentric equatorial cartesian coordinates (au, au/d):
   X=-3.008543433059729E+00  Y=-2.182085644484202E-01  Z= 2.062923460806998E-02
  VX= 2.781935350397251E-04 VY=-9.016074642520345E-03 VZ=-2.409450315853645E-03
Asteroid physical parameters (km, seconds, rotational period in hours):        
   GM= n.a.                RAD= 82.5595            ROTPER= 13.671              
   H= 8.                   G= .150                 B-V= .662                   
                           ALBEDO= .044            STYP= B                     
*******************************************************************************
            JDTDB,            Calendar Date (TDB),        delta-T,                      X,                      Y,                      Z,                     VX,                     VY,                     VZ,
******************************************************************************************************************************************************************************************************************
$$SOE
2466160.500000000, A.D. 2040-Jan-07 00:00:00.0000,      69.184101,  1.432474792893900E+00,  1.941716683066287E+00, -3.296343093015950E-01, -8.965014268489507E-03,  7.293088459330560E-03, -8.496055948458230E-04,
2466165.500000000, A.D. 2040-Jan-12 00:00:00.0000,      69.184245,  1.387287830631612E+00,  1.977680435479012E+00, -3.337974675469031E-01, -9.108895903572225E-03,  7.091941899219631E-03, -8.156107808996310E-04,
2466170.500000000, A.D. 2040-Jan-17 00:00:00.0000,      69.184388,  1.341394623340571E+00,  2.012631529603673E+00, -3.377899690286724E-01, -9.247504053767964E-03,  6.888051877366082E-03, -7.813471139677638E-04,
2466175.500000000, A.D. 2040-Jan-22 00:00:00.0000,      69.184527,  1.294821656740223E+00,  2.046556649341079E+00, -3.416105327444073E-01, -9.380792418586085E-03,  6.681578910689902E-03, -7.468398766056494E-04,
2466180.500000000, A.D. 2040-Jan-27 00:00:00.0000,      69.184660,  1.247595632847007E+00,  2.079443281450015E+00, -3.452580037362128E-01, -9.508720767815441E-03,  6.472683581071391E-03, -7.121141977687882E-04,
2466185.500000000, A.D. 2040-Feb-01 00:00:00.0000,      69.184788,  1.199743439812770E+00,  2.111279715213100E+00, -3.487313522292315E-01, -9.631254863361673E-03,  6.261526273185756E-03, -6.771950156718025E-04,
2466190.500000000, A.D. 2040-Feb-06 00:00:00.0000,      69.184910,  1.151292122187273E+00,  2.142055040813319E+00, -3.520296725887616E-01, -9.748366367843240E-03,  6.048266920947030E-03, -6.421070424111847E-04,
2466195.500000000, A.D. 2040-Feb-11 00:00:00.0000,      69.185028,  1.102268851669388E+00,  2.171759146463698E+00, -3.551521821047532E-01, -9.860032740754787E-03,  5.833064762238140E-03, -6.068747302456581E-04,
2466200.500000000, A.D. 2040-Feb-16 00:00:00.0000,      69.185138,  1.052700898404149E+00,  2.200382714330750E+00, -3.580982196108785E-01, -9.966237124371420E-03,  5.616078101864782E-03, -5.715222390910465E-04,
2466205.500000000, A.D. 2040-Feb-21 00:00:00.0000,      69.185238,  1.002615602873071E+00,  2.227917215298479E+00, -3.608672439447004E-01, -1.006696822045419E-02,  5.397464085353210E-03, -5.360734056237650E-04,
2466210.500000000, A.D. 2040-Feb-26 00:00:00.0000,      69.185328,  9.520403484261554E-01,  2.254354902632066E+00, -3.634588322590837E-01, -1.016222015673131E-02,  5.177378484918730E-03, -5.005517147222685E-04,
2466215.500000000, A.D. 2040-Mar-02 00:00:00.0000,      69.185406,  9.010025345063826E-01,  2.279688804598905E+00, -3.658726781963098E-01, -1.025199234372129E-02,  4.955975496201625E-03, -4.649802730131559E-04,
2466220.500000000, A.D. 2040-Mar-07 00:00:00.0000,      69.185476,  8.495295506102308E-01,  2.303912716099063E+00, -3.681085899342861E-01, -1.033628932376848E-02,  4.733407545383751E-03, -4.293817841403198E-04,
2466225.500000000, A.D. 2040-Mar-12 00:00:00.0000,      69.185535,  7.976487510199920E-01,  2.327021189358643E+00, -3.701664881134228E-01, -1.041512061341335E-02,  4.509825107336995E-03, -3.937785257825387E-04,
2466230.500000000, A.D. 2040-Mar-17 00:00:00.0000,      69.185584,  7.453874303394369E-01,  2.349009523742452E+00, -3.720464036531818E-01, -1.048850053979772E-02,  4.285376535239604E-03, -3.581923285138672E-04,
2466235.500000000, A.D. 2040-Mar-22 00:00:00.0000,      69.185620,  6.927727998608763E-01,  2.369873754743745E+00, -3.737484754676013E-01, -1.055644807182855E-02,  4.060207901798975E-03, -3.226445565360188E-04,
2466240.500000000, A.D. 2040-Mar-27 00:00:00.0000,      69.185642,  6.398319647878898E-01,  2.389610642209143E+00, -3.752729480891518E-01, -1.061898664687739E-02,  3.834462852093963E-03, -2.871560902722948E-04,
2466245.500000000, A.D. 2040-Apr-01 00:00:00.0000,      69.185651,  5.865919023340760E-01,  2.408217657856719E+00, -3.766201692101531E-01, -1.067614399380421E-02,  3.608282467987903E-03, -2.517473107950356E-04,
2466250.500000000, A.D. 2040-Apr-06 00:00:00.0000,      69.185650,  5.330794407142545E-01,  2.425692972144887E+00, -3.777905871508435E-01, -1.072795195307854E-02,  3.381805144019540E-03, -2.164380860508375E-04,
2466255.500000000, A.D. 2040-Apr-11 00:00:00.0000,      69.185638,  4.793212390407529E-01,  2.442035440549166E+00, -3.787847482629775E-01, -1.077444629474912E-02,  3.155166474635242E-03, -1.812477588408591E-04,
2466260.500000000, A.D. 2040-Apr-16 00:00:00.0000,      69.185613,  4.253437681337005E-01,  2.457244589303113E+00, -3.796032942776204E-01, -1.081566653498929E-02,  2.928499152588537E-03, -1.461951365083838E-04,
2466265.500000000, A.D. 2040-Apr-21 00:00:00.0000,      69.185576,  3.711732922506799E-01,  2.471320600658744E+00, -3.802469596055376E-01, -1.085165575192706E-02,  2.701932878309861E-03, -1.112984822838029E-04,
2466270.500000000, A.D. 2040-Apr-26 00:00:00.0000,      69.185526,  3.168358517375651E-01,  2.484264297720862E+00, -3.807165685983715E-01, -1.088246040145216E-02,  2.475594280070062E-03, -7.657550824859061E-05,
2466275.500000000, A.D. 2040-May-01 00:00:00.0000,      69.185465,  2.623572465990479E-01,  2.496077128909000E+00, -3.810130327786855E-01, -1.090813013362441E-02,  2.249606844865977E-03, -4.204336992836429E-05,
2466280.500000000, A.D. 2040-May-06 00:00:00.0000,      69.185394,  2.077630209848123E-01,  2.506761152100565E+00, -3.811373480471989E-01, -1.092871761002302E-02,  2.024090859981099E-03, -7.718662583962941E-06,
2466285.500000000, A.D. 2040-May-11 00:00:00.0000,      69.185315,  1.530784485866544E-01,  2.516319018507114E+00, -3.810905918755584E-01, -1.094427832203280E-02,  1.799163364426826E-03,  2.638258092738915E-05,
2466290.500000000, A.D. 2040-May-16 00:00:00.0000,      69.185226,  9.832851894041922E-02,  2.524753956328957E+00, -3.808739204911837E-01, -1.095487041091740E-02,  1.574938108624756E-03,  6.024489128067783E-05,
2466295.500000000, A.D. 2040-May-21 00:00:00.0000,      69.185128,  4.353792461922780E-02,  2.532069754228752E+00, -3.804885660586404E-01, -1.096055449142701E-02,  1.351525522618876E-03,  9.385336284811996E-05,
